BEIJING 1               
1 28890U 05043A   19283.41109538  .00000057  00000-0  20820-4 0  9991
2 28890  97.9971  55.0554 0015565  16.0980 344.0713 14.61269000743859
HJ-1A                   
1 33320U 08041A   19283.41417564  .00000075  00000-0  17714-4 0  9995
2 33320  97.8264 338.5204 0025844 169.1018 191.0758 14.77045838597541
HJ-1B                   
1 33321U 08041B   19283.36600055  .00000087  00000-0  19333-4 0  9991
2 33321  97.8335 340.4726 0034178 189.2416 170.8169 14.77164547597536
YAOGAN 4                
1 33446U 08061A   19283.41314063  .00000070  00000-0  16844-4 0  9994
2 33446  97.6890 245.1170 0017630  76.1469 284.1702 14.76977670584770
DEIMOS-1                
1 35681U 09041A   19283.22262939 -.00000059  00000-0 -18692-5 0  9992
2 35681  97.8444 161.1714 0002475 115.9595 244.1855 14.71801388547438
UK-DMC 2                
1 35683U 09041C   19283.26811636 -.00000054  00000-0 -13505-5 0  9995
2 35683  97.7243 134.1143 0001520  99.4381 260.6968 14.71114080547244
RISAT 1                 
1 38248U 12017A   19283.09644344  .00000456  00000-0  32078-4 0  9992
2 38248  97.5711 290.3927 0005186  43.3424 316.8212 15.09896987410706
DMC3-FM1                
1 40715U 15032A   19283.43472535 -.00000017  00000-0  51183-5 0  9996
2 40715  97.9549 177.2130 0014989 313.9664  46.0300 14.73682500228681
DMC3-FM2                
1 40716U 15032B   19283.38998387 -.00000006  00000-0  67222-5 0  9998
2 40716  97.9569 177.4474 0012510 324.1947  35.8406 14.73683990228680
DMC3-FM3                
1 40717U 15032C   19283.34450049 -.00000013  00000-0  57853-5 0  9990
2 40717  97.9567 178.0994 0015948 315.1992  44.7916 14.73673678228677
